[{"OBJECT_NAME":"STARLINK-32602","OBJECT_ID":"2024-225U","EPOCH":"2026-03-09T14:47:34.378368","MEAN_MOTION":14.98328644,"ECCENTRICITY":0.0002931,"INCLINATION":70.0016,"RA_OF_ASC_NODE":154.6524,"ARG_OF_PERICENTER":260.3345,"MEAN_ANOMALY":99.7483,"EPHEMERIS_TYPE":0,"CLASSIFICATION_TYPE":"U","NORAD_CAT_ID":62181,"ELEMENT_SET_NO":999,"REV_AT_EPOCH":7011,"BSTAR":0.00038981,"MEAN_MOTION_DOT":4.561e-5,"MEAN_MOTION_DDOT":0},{"OBJECT_NAME":"FREGAT DEB","OBJECT_ID":"2011-037AE","EPOCH":"2026-03-09T11:56:15.633888","MEAN_MOTION":13.06115161,"ECCENTRICITY":0.1161067,"INCLINATION":51.4064,"RA_OF_ASC_NODE":123.1143,"ARG_OF_PERICENTER":278.9184,"MEAN_ANOMALY":68.2271,"EPHEMERIS_TYPE":0,"CLASSIFICATION_TYPE":"U","NORAD_CAT_ID":45638,"ELEMENT_SET_NO":999,"REV_AT_EPOCH":25229,"BSTAR":0.0046705437,"MEAN_MOTION_DOT":0.00073585,"MEAN_MOTION_DDOT":0}]
